{
"DESCRIPTION" : {"PLACE_NAME":"지역명","CATEGORy":"유형","x":"설치위치(X좌표)","y":"설치위치(y좌표)","PLACE_ADDR":"설치주소","GU_NM":"구명","road_address_name":"상세설치장소","OBJECTID":"콘텐츠아이디","INSTL_DIV":"설치기관(회사)"},
"DATA" : [
{"category":"복지센터등","gu_nm":"강남구","y":"37.479804","place_name":"강남구 광평로34길 124","instl_div":"서울시(시스코)","place_addr":"아동복지센터","objectid":"WF120001","x":"127.088505","road_address_name":"아동복지센터 1F"},
{"category":"주요거리","gu_nm":"강남구","y":"37.4986144","place_name":"서울특별시 강남구 테헤란로 101","instl_div":"미래부(LGU+)","place_addr":"강남역 지하상가","objectid":"WF121044","x":"127.0280696","road_address_name":"강남역 지하상가 F-5 다이어리 앞 천정매립"},
{"category":"공공기관","gu_nm":"강남구","y":"37.5084197","place_name":"서울특별시 강남구 테헤란로114길 23","instl_div":"미래부(KT)","place_addr":"강남운전면허시험장(대치)","objectid":"WF121045","x":"127.0672394","road_address_name":"1층 화장실 앞 기둥위"},
{"category":"복지센터등","gu_nm":"강남구","y":"37.504556","place_name":"서울특별시 강남구 테헤란로 410","instl_div":"미래부(KT)","place_addr":"강남종합고용지원센터","objectid":"WF121046","x":"127.0507291","road_address_name":"금강타워 8층안내데스크앞"},
{"category":"문화관광","gu_nm":"강남구","y":"37.4829604","place_name":"서울특별시 강남구 선릉로4길 30","instl_div":"미래부(KT)","place_addr":"개포도서관","objectid":"WF121047","x":"127.063769","road_address_name":"1층 자판기 위"},
{"category":"복지센터등","gu_nm":"강남구","y":"37.4890937","place_name":"서울특별시 강남구 남부순환로 2806","instl_div":"미래부(KT)","place_addr":"군인공제회관","objectid":"WF121048","x":"127.0528667","road_address_name":"도곡동 467-12 한국 IBM"},
{"category":"문화관광","gu_nm":"강남구","y":"37.4975477","place_name":"서울특별시 강남구 선릉로69길 19","instl_div":"미래부(KT)","place_addr":"역삼동 문화센터","objectid":"WF121059","x":"127.0500818","road_address_name":"역삼동 757"},
{"category":"문화관광","gu_nm":"강남구","y":"37.5124637","place_name":"서울특별시 강남구 영동대로 513","instl_div":"미래부(LGU+)","place_addr":"코엑스전시장(몰)","objectid":"WF121060","x":"127.0587979","road_address_name":"삼성1동 159"},
{"category":"전통시장","gu_nm":"강남구","y":"37.518774","place_name":"서울특별시 강남구 압구정로2길 46","instl_div":"SKT","place_addr":"강남시장","objectid":"WF131003","x":"127.020569","road_address_name":"신사동 510-11(1층 좌측출입구 간판벽면)"},
{"category":"주요거리","gu_nm":"강남구","y":"37.503561","place_name":"서울특별시 강남구 선릉로86길 26","instl_div":"LGU+","place_addr":"대치동 거리","objectid":"WF131004","x":"127.051855","road_address_name":"대치동 896 -34 세원빌딩 옥상"},
{"category":"전통시장","gu_nm":"강동구","y":"37.549739","place_name":"서울특별시 강동구 양재대로138길 11","instl_div":"LGU+","place_addr":"명일골목시장","objectid":"WF131164","x":"127.144403","road_address_name":"시장입구 방범CCTV"},
{"category":"전통시장","gu_nm":"강동구","y":"37.550121","place_name":"서울특별시 강동구 상암로11길 11","instl_div":"LGU+","place_addr":"암사종합시장","objectid":"WF131166","x":"127.128673","road_address_name":"ByC 매장 기둥위"},
{"category":"전통시장","gu_nm":"강동구","y":"37.550439","place_name":"서울특별시 강동구 상암로11길 17","instl_div":"LGU+","place_addr":"암사종합시장","objectid":"WF131167","x":"127.128781","road_address_name":"강원상회 기둥위"},
{"category":"전통시장","gu_nm":"강동구","y":"37.550718","place_name":"서울특별시 강동구 상암로11길 17","instl_div":"LGU+","place_addr":"암사종합시장","objectid":"WF131168","x":"127.128878","road_address_name":"내츄럴 기둥위"},
{"category":"전통시장","gu_nm":"강동구","y":"37.551052","place_name":"서울특별시 강동구 상암로11길 29","instl_div":"LGU+","place_addr":"암사종합시장","objectid":"WF131169","x":"127.129014","road_address_name":"다복건어물 기둥위"},
{"category":"전통시장","gu_nm":"강동구","y":"37.551286","place_name":"서울특별시 강동구 올림픽로98길 21","instl_div":"LGU+","place_addr":"암사종합시장","objectid":"WF131170","x":"127.129196","road_address_name":"LG_U+ 휴대폰매장 기둥위"},
{"category":"전통시장","gu_nm":"강동구","y":"37.551646","place_name":"서울특별시 강동구 고덕로10길 73","instl_div":"LGU+","place_addr":"암사종합시장","objectid":"WF131171","x":"127.129326","road_address_name":"신일방앗간 기둥위"},
{"category":"공원","gu_nm":"강북구","y":"37.6448164","place_name":"서울특별시 강북구 도봉로101길 71","instl_div":"서울시(삼성)","place_addr":"우이천","objectid":"WF121066","x":"127.0272402","road_address_name":"번동 쌍한교~월계2교 산책로 - 3"},
{"category":"공원","gu_nm":"강북구","y":"37.6420712","place_name":"서울특별시 강북구 도봉로102길 21","instl_div":"서울시(삼성)","place_addr":"우이천","objectid":"WF121067","x":"127.0316176","road_address_name":"번동 쌍한교~월계2교 산책로 - 5"},
{"category":"공원","gu_nm":"강북구","y":"37.6409695","place_name":"서울특별시 강북구 도봉로98길 56","instl_div":"서울시(삼성)","place_addr":"우이천","objectid":"WF121068","x":"127.0328342","road_address_name":"번동 쌍한교~월계2교 산책로 - 4"},
{"category":"공원","gu_nm":"강북구","y":"37.6393686","place_name":"서울특별시 강북구 도봉로96나길 27","instl_div":"서울시(삼성)","place_addr":"우이천","objectid":"WF121069","x":"127.0335916","road_address_name":"번동 쌍한교~월계2교 산책로 - 2"},
{"category":"공원","gu_nm":"강북구","y":"37.6328341","place_name":"서울특별시 강북구 한천로 911","instl_div":"서울시(SKT)","place_addr":"우이천","objectid":"WF121070","x":"127.0389324","road_address_name":"번동 쌍한교~월계2교 산책로(수유동) - 1"},
{"category":"공원","gu_nm":"강북구","y":"37.6244024","place_name":"서울특별시 강북구 한천로105길 23","instl_div":"서울시(삼성)","place_addr":"우이천","objectid":"WF121071","x":"127.0495922","road_address_name":"번동 쌍한교~월계2교 산책로 - 6"},
{"category":"공공기관","gu_nm":"강북구","y":"37.6240798","place_name":"서울특별시 강북구 솔매로50길 55","instl_div":"미래부(KT)","place_addr":"강북우체국","objectid":"WF121155","x":"127.0281149","road_address_name":"미아동 127-9"},
{"category":"주요거리","gu_nm":"강서구","y":"37.5326744","place_name":"서울특별시 강서구 강서로16길 1","instl_div":"서울시(LGU+)","place_addr":"까치산역#1","objectid":"WF121164","x":"126.8463367","road_address_name":"2호선 까치산역 1번출구"},
{"category":"주요거리","gu_nm":"강서구","y":"37.5316941","place_name":"서울특별시 강서구 강서로 54","instl_div":"서울시(다산)","place_addr":"까치산역#2","objectid":"WF121165","x":"126.8469015","road_address_name":"2호선 까치산역 2번출구"},
{"category":"주요거리","gu_nm":"강서구","y":"37.5296848","place_name":"서울특별시 강서구 강서로5길 64","instl_div":"서울시(다산)","place_addr":"까치산역#3","objectid":"WF121166","x":"126.8480431","road_address_name":"2호선 까치산역 2번출구"},
{"category":"주요거리","gu_nm":"강서구","y":"37.5417034","place_name":"서울특별시 강서구 화곡로 176-4","instl_div":"서울시(SKT)","place_addr":"화곡역3번출구#1-1","objectid":"WF121167","x":"126.8409656","road_address_name":"5호선 화곡역 3번출구"},
{"category":"주요거리","gu_nm":"강서구","y":"37.5415767","place_name":"서울특별시 강서구 화곡로 161","instl_div":"서울시(SKT)","place_addr":"화곡역#2-1","objectid":"WF121169","x":"126.8397653","road_address_name":"5호선 화곡역 7번출구"},
{"category":"공공기관","gu_nm":"강서구","y":"37.5502321","place_name":"서울특별시 강서구 남부순환로 171","instl_div":"미래부(KT)","place_addr":"강서운전면허시험장","objectid":"WF121172","x":"126.8210486","road_address_name":"1층 도로주행시험대기실 "},
{"category":"복지센터등","gu_nm":"강서구","y":"37.5608756","place_name":"서울특별시 강서구 공항대로39길 59","instl_div":"미래부(LGU+)","place_addr":"등촌4종합사회복지관","objectid":"WF121175","x":"126.8437601","road_address_name":"2층 203호 앞 천정매립"},
{"category":"공공기관","gu_nm":"강서구","y":"37.5571274","place_name":"서울특별시 강서구 공항대로 379","instl_div":"미래부(LGU+)","place_addr":"한국해운조합","objectid":"WF121176","x":"126.8498773","road_address_name":"1층 로비 천정"},
{"category":"전통시장","gu_nm":"강서구","y":"37.549386","place_name":"서울특별시 강서구 강서로 261","instl_div":"서울시(KT)","place_addr":"송화시장","objectid":"WF131227","x":"126.835676","road_address_name":"내발산동 720-4(송화시장 북문기둥)"},
{"category":"전통시장","gu_nm":"강서구","y":"37.548908","place_name":"서울특별시 강서구 강서로45나길 16","instl_div":"서울시(KT)","place_addr":"송화시장","objectid":"WF131231","x":"126.835615","road_address_name":"내발산동 720-4(송화시장 남문)"},
{"category":"전통시장","gu_nm":"강서구","y":"37.534907","place_name":"서울특별시 강서구 월정로30길 60","instl_div":"서울시(다산)","place_addr":"화곡중앙시장","objectid":"WF131232","x":"126.839289","road_address_name":"화곡1동 370-76(영광슈퍼기둥위)"},
{"category":"전통시장","gu_nm":"강서구","y":"37.535283","place_name":"서울특별시 강서구 월정로30길 82","instl_div":"서울시(다산)","place_addr":"화곡중앙시장","objectid":"WF131234","x":"126.840244","road_address_name":"화곡1동 370-76(멸치국수기둥위)"},
{"category":"공공기관","gu_nm":"강서구","y":"37.557986","place_name":"서울특별시 강서구 양천로 550","instl_div":"미래부(SKT)","place_addr":"강서소방서","objectid":"WF131244","x":"126.8601195","road_address_name":"등촌1동 630-2"},
{"category":"공공기관","gu_nm":"강서구","y":"37.5608124","place_name":"서울특별시 강서구 남부순환로 11","instl_div":"미래부(LGU+)","place_addr":"김포공항 국내선","objectid":"WF131245","x":"126.8074296","road_address_name":"공항동 150"},
{"category":"복지센터등","gu_nm":"강서구","y":"37.5842473","place_name":"서울특별시 강서구 금낭화로26가길 120","instl_div":"미래부(SKT)","place_addr":"지온보육원","objectid":"WF131248","x":"126.8120928","road_address_name":"금낭화로 26가길 120"},
{"category":"문화관광","gu_nm":"강서구","y":"37.5348529","place_name":"서울특별시 강서구 곰달래로57가길 26","instl_div":"미래부(SKT)","place_addr":"화곡청소년수련관","objectid":"WF131251","x":"126.860524","road_address_name":"3층 강당앞 천정매립"},
{"category":"공원","gu_nm":"강서구","y":"37.5722159","place_name":"서울특별시 강서구 허준로 23","instl_div":"서울시(KT)","place_addr":"공암나루근린공원","objectid":"WF141300","x":"126.8462946","road_address_name":"강서로80길 117(가양동 1459-9)공원주변"},
{"category":"공원","gu_nm":"강서구","y":"37.5720908","place_name":"서울특별시 강서구 허준로 23","instl_div":"서울시(KT)","place_addr":"공암나루근린공원","objectid":"WF141301","x":"126.8464905","road_address_name":"강서로80길 117(가양동 1459-9)공원주변"},
{"category":"공원","gu_nm":"강서구","y":"37.5732187","place_name":"서울특별시 강서구 강서로 532","instl_div":"서울시(다산)","place_addr":"공암나루근린공원","objectid":"WF141302","x":"126.8445895","road_address_name":"강서로80길 117(가양동 1459-9)공원주변"},
{"category":"공원","gu_nm":"강서구","y":"37.5374003","place_name":"서울특별시 강서구 까치산로2길 89-1","instl_div":"서울시(KT)","place_addr":"까치산근린공원","objectid":"WF141304","x":"126.8444424","road_address_name":"화곡동 105-565 공원 농구장 주변"},
{"category":"공원","gu_nm":"강서구","y":"37.5372113","place_name":"서울특별시 강서구 까치산로2길 89-8","instl_div":"서울시(KT)","place_addr":"까치산근린공원","objectid":"WF141305","x":"126.8444973","road_address_name":"화곡동 105-565 공원 농구장 주변"},
{"category":"공원","gu_nm":"강서구","y":"37.5368204","place_name":"서울특별시 강서구 강서로17가길 46","instl_div":"서울시(KT)","place_addr":"까치산근린공원","objectid":"WF141306","x":"126.8434005","road_address_name":"화곡동 105-456 공원 팔각정 주변"},
{"category":"공원","gu_nm":"강서구","y":"37.5368025","place_name":"서울특별시 강서구 강서로17나길 86","instl_div":"서울시(KT)","place_addr":"까치산근린공원","objectid":"WF141307","x":"126.843112","road_address_name":"화곡동 105-456 공원 팔각정 주변"}
	]
}