{
"DESCRIPTION" : {"PLACE_NAME":"지역명","CATEGORY":"유형","x":"설치위치(X좌표)","y":"설치위치(Y좌표)","PLACE_ADDR":"설치주소","GU_NM":"구명","road_address_name":"상세설치장소","OBJECTID":"콘텐츠아이디","INSTL_DIV":"설치기관(회사)"},
    "DATA" : [
 {"category":"복지센터등","gu_nm":"강남구","y":"37.479804","place_name":"강남구 광평로34길 124","instl_div":"서울시(시스코)","place_addr":"아동복지센터","objectid":"WF120001","x":"127.088505","road_address_name":"아동복지센터 1F"},
    {"category":"복지센터등","gu_nm":"강남구","y":"37.479804","place_name":"강남구 광평로34길 124","instl_div":"서울시(시스코)","place_addr":"아동복지센터","objectid":"WF120002","x":"127.088505","road_address_name":"아동복지센터 1F"},
    {"category":"복지센터등","gu_nm":"강남구","y":"37.479804","place_name":"강남구 광평로34길 124","instl_div":"서울시(시스코)","place_addr":"아동복지센터","objectid":"WF120003","x":"127.088505","road_address_name":"아동복지센터 1F"},
    {"category":"복지센터등","gu_nm":"강남구","y":"37.479804","place_name":"강남구 광평로34길 124","instl_div":"서울시(시스코)","place_addr":"아동복지센터","objectid":"WF120004","x":"127.088505","road_address_name":"아동복지센터 1F"},
    {"category":"복지센터등","gu_nm":"강남구","y":"37.479804","place_name":"강남구 광평로34길 124","instl_div":"서울시(시스코)","place_addr":"아동복지센터","objectid":"WF120005","x":"127.088505","road_address_name":"아동복지센터 2F"},
    {"category":"주요거리","gu_nm":"강남구","y":"37.4986144","place_name":"서울특별시 강남구 테헤란로 101","instl_div":"미래부(LGU+)","place_addr":"강남역 지하상가","objectid":"WF121044","x":"127.0280696","road_address_name":"강남역 지하상가 F-5 다이어리 앞 천정매립"},
    {"category":"공공기관","gu_nm":"강남구","y":"37.5084197","place_name":"서울특별시 강남구 테헤란로114길 23","instl_div":"미래부(KT)","place_addr":"강남운전면허시험장(대치)","objectid":"WF121045","x":"127.0672394","road_address_name":"1층 화장실 앞 기둥위"},
    {"category":"복지센터등","gu_nm":"강남구","y":"37.504556","place_name":"서울특별시 강남구 테헤란로 410","instl_div":"미래부(KT)","place_addr":"강남종합고용지원센터","objectid":"WF121046","x":"127.0507291","road_address_name":"금강타워 8층안내데스크앞"},
    {"category":"문화관광","gu_nm":"강남구","y":"37.4829604","place_name":"서울특별시 강남구 선릉로4길 30","instl_div":"미래부(KT)","place_addr":"개포도서관","objectid":"WF121047","x":"127.063769","road_address_name":"1층 자판기 위"},
    {"category":"복지센터등","gu_nm":"강남구","y":"37.4890937","place_name":"서울특별시 강남구 남부순환로 2806","instl_div":"미래부(KT)","place_addr":"군인공제회관","objectid":"WF121048","x":"127.0528667","road_address_name":"도곡동 467-12 한국 IBM"},
    {"category":"공공기관","gu_nm":"강남구","y":"37.4890937","place_name":"서울특별시 강남구 남부순환로 2806","instl_div":"미래부(KT)","place_addr":"군인공제회관","objectid":"WF121049","x":"127.0528667","road_address_name":"1층 계단앞 천정매립"},
    {"category":"공공기관","gu_nm":"강남구","y":"37.4890937","place_name":"서울특별시 강남구 남부순환로 2806","instl_div":"미래부(KT)","place_addr":"군인공제회관","objectid":"WF121050","x":"127.0528667","road_address_name":"도곡동 467-12 삼성엔지니어링"},
    {"category":"공공기관","gu_nm":"강남구","y":"37.4890937","place_name":"서울특별시 강남구 남부순환로 2806","instl_div":"미래부(KT)","place_addr":"군인공제회관","objectid":"WF121051","x":"127.0528667","road_address_name":"도곡동 467-12 유비쿼스"},
    {"category":"공공기관","gu_nm":"강남구","y":"37.4890937","place_name":"서울특별시 강남구 남부순환로 2806","instl_div":"미래부(KT)","place_addr":"군인공제회관","objectid":"WF121052","x":"127.0528667","road_address_name":"26층 중앙 복도 천정매립"},
    {"category":"공공기관","gu_nm":"강남구","y":"37.4890937","place_name":"서울특별시 강남구 남부순환로 2806","instl_div":"미래부(KT)","place_addr":"군인공제회관","objectid":"WF121053","x":"127.0528667","road_address_name":"도곡동 467-12 한국컴퓨웨어"},
    {"category":"공공기관","gu_nm":"강남구","y":"37.4890937","place_name":"서울특별시 강남구 남부순환로 2806","instl_div":"미래부(KT)","place_addr":"군인공제회관","objectid":"WF121054","x":"127.0528667","road_address_name":"도곡동 467-12 SAP Korea"},
    {"category":"공공기관","gu_nm":"강남구","y":"37.4890937","place_name":"서울특별시 강남구 남부순환로 2806","instl_div":"미래부(KT)","place_addr":"군인공제회관","objectid":"WF121055","x":"127.0528667","road_address_name":"2층 계단앞 천정매립"},
    {"category":"공공기관","gu_nm":"강남구","y":"37.4890937","place_name":"서울특별시 강남구 남부순환로 2806","instl_div":"미래부(KT)","place_addr":"군인공제회관","objectid":"WF121056","x":"127.0528667","road_address_name":"3층 계단앞 천정매립"},
    {"category":"공공기관","gu_nm":"강남구","y":"37.4890937","place_name":"서울특별시 강남구 남부순환로 2806","instl_div":"미래부(KT)","place_addr":"군인공제회관","objectid":"WF121057","x":"127.0528667","road_address_name":"4층 신부대기실1  앞"},
    {"category":"공공기관","gu_nm":"강남구","y":"37.4890937","place_name":"서울특별시 강남구 남부순환로 2806","instl_div":"미래부(KT)","place_addr":"군인공제회관","objectid":"WF121058","x":"127.0528667","road_address_name":"지하1층 천정매립"},
    {"category":"문화관광","gu_nm":"강남구","y":"37.4975477","place_name":"서울특별시 강남구 선릉로69길 19","instl_div":"미래부(KT)","place_addr":"역삼동 문화센터","objectid":"WF121059","x":"127.0500818","road_address_name":"역삼동 757"},
    {"category":"문화관광","gu_nm":"강남구","y":"37.5124637","place_name":"서울특별시 강남구 영동대로 513","instl_div":"미래부(LGU+)","place_addr":"코엑스전시장(몰)","objectid":"WF121060","x":"127.0587979","road_address_name":"삼성1동 159"},
    {"category":"전통시장","gu_nm":"강남구","y":"37.518774","place_name":"서울특별시 강남구 압구정로2길 46","instl_div":"SKT","place_addr":"강남시장","objectid":"WF131003","x":"127.020569","road_address_name":"신사동 510-11(1층 좌측출입구 간판벽면)"},
    {"category":"주요거리","gu_nm":"강남구","y":"37.503561","place_name":"서울특별시 강남구 선릉로86길 26","instl_div":"LGU+","place_addr":"대치동 거리","objectid":"WF131004","x":"127.051855","road_address_name":"대치동 896 -34 세원빌딩 옥상"},
    {"category":"주요거리","gu_nm":"강남구","y":"37.503111","place_name":"서울특별시 강남구 선릉로86길 10","instl_div":"LGU+","place_addr":"대치동 거리","objectid":"WF131005","x":"127.050684","road_address_name":"대치동 897 -13 남곡빌딩 옥상"},
    {"category":"전통시장","gu_nm":"강남구","y":"37.509119","place_name":"서울특별시 강남구 강남대로124길 13","instl_div":"SKT","place_addr":"영동전통시장","objectid":"WF131006","x":"127.023881","road_address_name":"논현동 140(옥상설치-시장좌측방향)"},
    {"category":"전통시장","gu_nm":"강남구","y":"37.509119","place_name":"서울특별시 강남구 강남대로124길 13","instl_div":"SKT","place_addr":"영동전통시장","objectid":"WF131007","x":"127.023881","road_address_name":"논현동 140(옥상설치-시장우측방향)"},
    {"category":"전통시장","gu_nm":"강남구","y":"37.522519","place_name":"서울특별시 강남구 학동로101길 26","instl_div":"SKT","place_addr":"청담삼익시장","objectid":"WF131008","x":"127.057737","road_address_name":"청담동 134-20(1F 우측공원출입구_D)-1층 125호앞 복도 기둥벽면"},
    {"category":"전통시장","gu_nm":"강남구","y":"37.522519","place_name":"서울특별시 강남구 학동로101길 26","instl_div":"SKT","place_addr":"청담삼익시장","objectid":"WF131009","x":"127.057737","road_address_name":"청담동 134-20(1F 35호 복도_D)-1층 109호앞 복도 기둥벽면"},
    {"category":"전통시장","gu_nm":"강남구","y":"37.522519","place_name":"서울특별시 강남구 학동로101길 26","instl_div":"SKT","place_addr":"청담삼익시장","objectid":"WF131010","x":"127.057737","road_address_name":"청담동 134-20(1F 좌측주차장출입구_D)-1층 141호앞 복도 기둥벽면"},
    {"category":"전통시장","gu_nm":"강남구","y":"37.522519","place_name":"서울특별시 강남구 학동로101길 26","instl_div":"SKT","place_addr":"청담삼익시장","objectid":"WF131011","x":"127.057737","road_address_name":"청담동 134-20(1F 주차장출입구_D)-1층 좌측주차장 출입구외벽"},
    {"category":"전통시장","gu_nm":"강남구","y":"37.522519","place_name":"서울특별시 강남구 학동로101길 26","instl_div":"SKT","place_addr":"청담삼익시장","objectid":"WF131012","x":"127.057737","road_address_name":"청담동 134-20(B1 46호_D)-1층 주차장 출입구외벽"},
    {"category":"전통시장","gu_nm":"강남구","y":"37.522519","place_name":"서울특별시 강남구 학동로101길 26","instl_div":"SKT","place_addr":"청담삼익시장","objectid":"WF131013","x":"127.057737","road_address_name":"청담동 134-20(1F 67호 복도_D)-1층 우측공원 출입구외벽"},
    {"category":"전통시장","gu_nm":"강남구","y":"37.522519","place_name":"서울특별시 강남구 학동로101길 26","instl_div":"SKT","place_addr":"청담삼익시장","objectid":"WF131014","x":"127.057737","road_address_name":"청담동 134-20(1F 56호 복도_D)-지하1층 32호앞 제일식당 기둥벽면"},
    {"category":"전통시장","gu_nm":"강남구","y":"37.522519","place_name":"서울특별시 강남구 학동로101길 26","instl_div":"SKT","place_addr":"청담삼익시장","objectid":"WF131015","x":"127.057737","road_address_name":"청담동 134-20(B1 32호_D)-지하1층 46호앞 해남식당 복도 벽면"},
    {"category":"복지센터등","gu_nm":"강남구","y":"37.4869646","place_name":"서울특별시 강남구 광평로60길 22","instl_div":"미래부(SKT)","place_addr":"강남구 직업재활센터","objectid":"WF131143","x":"127.107019","road_address_name":"건물 리모델링 증축"},
    {"category":"복지센터등","gu_nm":"강남구","y":"37.4869646","place_name":"서울특별시 강남구 광평로60길 22","instl_div":"미래부(SKT)","place_addr":"강남구 직업재활센터","objectid":"WF131144","x":"127.107019","road_address_name":"건물 리모델링 증축"},
    {"category":"복지센터등","gu_nm":"강남구","y":"37.4869646","place_name":"서울특별시 강남구 광평로60길 22","instl_div":"미래부(SKT)","place_addr":"강남구 직업재활센터","objectid":"WF131145","x":"127.107019","road_address_name":"건물 리모델링 증축"},
    {"category":"복지센터등","gu_nm":"강남구","y":"37.4869646","place_name":"서울특별시 강남구 광평로60길 22","instl_div":"미래부(SKT)","place_addr":"강남구 직업재활센터","objectid":"WF131146","x":"127.107019","road_address_name":"건물 리모델링 증축"},
    {"category":"복지센터등","gu_nm":"강남구","y":"37.4869646","place_name":"서울특별시 강남구 광평로60길 22","instl_div":"미래부(SKT)","place_addr":"강남구 직업재활센터","objectid":"WF131147","x":"127.107019","road_address_name":"건물 리모델링 증축"},
    {"category":"복지센터등","gu_nm":"강남구","y":"37.4869646","place_name":"서울특별시 강남구 광평로60길 22","instl_div":"미래부(SKT)","place_addr":"강남구 직업재활센터","objectid":"WF131148","x":"127.107019","road_address_name":"건물 리모델링 증축"},
    {"category":"복지센터등","gu_nm":"강남구","y":"37.4869646","place_name":"서울특별시 강남구 광평로60길 22","instl_div":"미래부(SKT)","place_addr":"강남구 직업재활센터","objectid":"WF131149","x":"127.107019","road_address_name":"건물 리모델링 증축"},
    {"category":"공공기관","gu_nm":"강남구","y":"37.516286","place_name":"서울특별시 강남구 선릉로 668","instl_div":"미래부(KT)","place_addr":"강남구 보건소","objectid":"WF141144","x":"127.0422041","road_address_name":"5층 화장실 앞"},
    {"category":"공공기관","gu_nm":"강남구","y":"37.516286","place_name":"서울특별시 강남구 선릉로 668","instl_div":"미래부(KT)","place_addr":"강남구 보건소","objectid":"WF141145","x":"127.0422041","road_address_name":"4층 화장실 앞"},
    {"category":"공공기관","gu_nm":"강남구","y":"37.516286","place_name":"서울특별시 강남구 선릉로 668","instl_div":"미래부(KT)","place_addr":"강남구 보건소","objectid":"WF141146","x":"127.0422041","road_address_name":"4층 403호 앞"},
    {"category":"공공기관","gu_nm":"강남구","y":"37.516286","place_name":"서울특별시 강남구 선릉로 668","instl_div":"미래부(KT)","place_addr":"강남구 보건소","objectid":"WF141147","x":"127.0422041","road_address_name":"선릉로 668"},
    {"category":"공공기관","gu_nm":"강남구","y":"37.516286","place_name":"서울특별시 강남구 선릉로 668","instl_div":"미래부(KT)","place_addr":"강남구 보건소","objectid":"WF141148","x":"127.0422041","road_address_name":"선릉로 668"},
    {"category":"공공기관","gu_nm":"강남구","y":"37.516286","place_name":"서울특별시 강남구 선릉로 668","instl_div":"미래부(KT)","place_addr":"강남구 보건소","objectid":"WF141149","x":"127.0422041","road_address_name":"선릉로 668"},
    {"category":"공공기관","gu_nm":"강남구","y":"37.516286","place_name":"서울특별시 강남구 선릉로 668","instl_div":"미래부(KT)","place_addr":"강남구 보건소","objectid":"WF141150","x":"127.0422041","road_address_name":"선릉로 668"},
    {"category":"공공기관","gu_nm":"강남구","y":"37.516286","place_name":"서울특별시 강남구 선릉로 668","instl_div":"미래부(KT)","place_addr":"강남구 보건소","objectid":"WF141151","x":"127.0422041","road_address_name":"선릉로 668"},
    {"category":"공공기관","gu_nm":"강남구","y":"37.516286","place_name":"서울특별시 강남구 선릉로 668","instl_div":"미래부(KT)","place_addr":"강남구 보건소","objectid":"WF141152","x":"127.0422041","road_address_name":"선릉로 668"},
    {"category":"공공기관","gu_nm":"강남구","y":"37.516286","place_name":"서울특별시 강남구 선릉로 668","instl_div":"미래부(KT)","place_addr":"강남구 보건소","objectid":"WF141153","x":"127.0422041","road_address_name":"선릉로 668"},
    {"category":"복지센터등","gu_nm":"강남구","y":"37.515857","place_name":"서울특별시 강남구 삼성로 640","instl_div":"미래부(LGU+)","place_addr":"강남노인종합복지관","objectid":"WF141154","x":"127.052132","road_address_name":"6층 데이케어센터"},
    {"category":"복지센터등","gu_nm":"강남구","y":"37.515857","place_name":"서울특별시 강남구 삼성로 640","instl_div":"미래부(LGU+)","place_addr":"강남노인종합복지관","objectid":"WF141155","x":"127.052132","road_address_name":"5층 서예실 앞"},
    {"category":"복지센터등","gu_nm":"강남구","y":"37.515857","place_name":"서울특별시 강남구 삼성로 640","instl_div":"미래부(LGU+)","place_addr":"강남노인종합복지관","objectid":"WF141156","x":"127.052132","road_address_name":"4층 도서관 앞"},
    {"category":"복지센터등","gu_nm":"강남구","y":"37.515857","place_name":"서울특별시 강남구 삼성로 640","instl_div":"미래부(LGU+)","place_addr":"강남노인종합복지관","objectid":"WF141157","x":"127.0512132","road_address_name":"삼성동 66"},
    {"category":"복지센터등","gu_nm":"강남구","y":"37.4923415","place_name":"서울특별시 강남구 개포로109길 5","instl_div":"미래부(LGU+)","place_addr":"강남장애인복지관","objectid":"WF141158","x":"127.0746666","road_address_name":"지하1층 헬스장 앞 천정매립"},
    {"category":"복지센터등","gu_nm":"강남구","y":"37.4923415","place_name":"서울특별시 강남구 개포로109길 5","instl_div":"미래부(LGU+)","place_addr":"강남장애인복지관","objectid":"WF141159","x":"127.0746666","road_address_name":"지하2층 목욕탕 앞 천정매립"},
    {"category":"문화관광","gu_nm":"강남구","y":"37.520529","place_name":"서울특별시 강남구 영동대로131길 26","instl_div":"미래부(KT)","place_addr":"강남청소년수련관","objectid":"WF141160","x":"127.0540445","road_address_name":"3층 산들방 앞 천장"},
    {"category":"문화관광","gu_nm":"강남구","y":"37.520529","place_name":"서울특별시 강남구 영동대로131길 26","instl_div":"미래부(KT)","place_addr":"강남청소년수련관","objectid":"WF141161","x":"127.0540445","road_address_name":"3층 청담실 앞 복도"},
    {"category":"문화관광","gu_nm":"강남구","y":"37.520529","place_name":"서울특별시 강남구 영동대로131길 26","instl_div":"미래부(KT)","place_addr":"강남청소년수련관","objectid":"WF141162","x":"127.0540445","road_address_name":"2F 체력단련실 앞 벽면"},
    {"category":"문화관광","gu_nm":"강남구","y":"37.520529","place_name":"서울특별시 강남구 영동대로131길 26","instl_div":"미래부(KT)","place_addr":"강남청소년수련관","objectid":"WF141163","x":"127.0540445","road_address_name":"1F 강당 입구 위 천장"},
    {"category":"문화관광","gu_nm":"강남구","y":"37.520529","place_name":"서울특별시 강남구 영동대로131길 26","instl_div":"미래부(KT)","place_addr":"강남청소년수련관","objectid":"WF141164","x":"127.0540445","road_address_name":"B1 방재실 입구 위 천장"},
    {"category":"복지센터등","gu_nm":"강남구","y":"37.5032219","place_name":"서울특별시 강남구 역삼로71길 22","instl_div":"미래부(LGU+)","place_addr":"대치노인복지센터","objectid":"WF141166","x":"127.0543227","road_address_name":"지하1층 중앙복도 천정매립"},
    {"category":"복지센터등","gu_nm":"강남구","y":"37.5032219","place_name":"서울특별시 강남구 역삼로71길 22","instl_div":"미래부(LGU+)","place_addr":"대치노인복지센터","objectid":"WF141167","x":"127.0543227","road_address_name":"1층 안내데스크 앞 천정매립"},
    {"category":"복지센터등","gu_nm":"강남구","y":"37.5032219","place_name":"서울특별시 강남구 역삼로71길 22","instl_div":"미래부(LGU+)","place_addr":"대치노인복지센터","objectid":"WF141168","x":"127.0543227","road_address_name":"2층 안내데스크 앞 천정매립"},
    {"category":"문화관광","gu_nm":"강남구","y":"37.5000135","place_name":"서울특별시 강남구 영동대로57길 7","instl_div":"미래부(KT)","place_addr":"대치평생학습관","objectid":"WF141169","x":"127.0669398","road_address_name":"5F 엘리베이터 앞 점검구 안"},
    {"category":"문화관광","gu_nm":"강남구","y":"37.5000135","place_name":"서울특별시 강남구 영동대로57길 7","instl_div":"미래부(KT)","place_addr":"대치평생학습관","objectid":"WF141170","x":"127.0669398","road_address_name":"4F 센터사무실 앞 점검구 안"},
    {"category":"문화관광","gu_nm":"강남구","y":"37.5000135","place_name":"서울특별시 강남구 영동대로57길 7","instl_div":"미래부(KT)","place_addr":"대치평생학습관","objectid":"WF141171","x":"127.0669398","road_address_name":"3F 어린이집 복도 앞 점검구 안"},
    {"category":"문화관광","gu_nm":"강남구","y":"37.5000135","place_name":"서울특별시 강남구 영동대로57길 7","instl_div":"미래부(KT)","place_addr":"대치평생학습관","objectid":"WF141172","x":"127.0669398","road_address_name":"2F 문화교실 앞 전검구 안"},
    {"category":"문화관광","gu_nm":"강남구","y":"37.5000135","place_name":"서울특별시 강남구 영동대로57길 7","instl_div":"미래부(KT)","place_addr":"대치평생학습관","objectid":"WF141173","x":"127.0669398","road_address_name":"1F 관리사무실 앞 점검구 안"},
    {"category":"복지센터등","gu_nm":"강남구","y":"37.4705811","place_name":"서울특별시 강남구 헌릉로757길 35","instl_div":"미래부(LGU+)","place_addr":"성모자애복지관","objectid":"WF141174","x":"127.1192729","road_address_name":"1층 인포데스크 앞 천장"},
    {"category":"복지센터등","gu_nm":"강남구","y":"37.4705811","place_name":"서울특별시 강남구 헌릉로757길 35","instl_div":"미래부(LGU+)","place_addr":"성모자애복지관","objectid":"WF141175","x":"127.1192729","road_address_name":"2층 휴게실 천장"},
    {"category":"복지센터등","gu_nm":"강남구","y":"37.4705811","place_name":"서울특별시 강남구 헌릉로757길 35","instl_div":"미래부(LGU+)","place_addr":"성모자애복지관","objectid":"WF141176","x":"127.1192729","road_address_name":"3층 휴게실 앞 천장"},
    {"category":"복지센터등","gu_nm":"강남구","y":"37.4705811","place_name":"서울특별시 강남구 헌릉로757길 35","instl_div":"미래부(LGU+)","place_addr":"성모자애복지관","objectid":"WF141177","x":"127.1192729","road_address_name":"4층 엘리베이터 앞 천장"},
    {"category":"복지센터등","gu_nm":"강남구","y":"37.4705811","place_name":"서울특별시 강남구 헌릉로757길 35","instl_div":"미래부(LGU+)","place_addr":"성모자애복지관","objectid":"WF141178","x":"127.1192729","road_address_name":"B1층 엘리베이터 앞 천장"},
    {"category":"복지센터등","gu_nm":"강남구","y":"37.4705811","place_name":"서울특별시 강남구 헌릉로757길 35","instl_div":"미래부(LGU+)","place_addr":"성모자애복지관","objectid":"WF141179","x":"127.1192729","road_address_name":"B2층 엘리베이터 앞 천장"},
    {"category":"문화관광","gu_nm":"강남구","y":"37.527293","place_name":"서울특별시 강남구 언주로172길 26","instl_div":"미래부(KT)","place_addr":"압구정평생학습관","objectid":"WF141180","x":"127.0357833","road_address_name":"6F 체육센터 남자화장실 입구 상단"},
    {"category":"문화관광","gu_nm":"강남구","y":"37.527293","place_name":"서울특별시 강남구 언주로172길 26","instl_div":"미래부(KT)","place_addr":"압구정평생학습관","objectid":"WF141181","x":"127.0357833","road_address_name":"5F 사무실 앞 대기실 벽면"},
    {"category":"문화관광","gu_nm":"강남구","y":"37.527293","place_name":"서울특별시 강남구 언주로172길 26","instl_div":"미래부(KT)","place_addr":"압구정평생학습관","objectid":"WF141182","x":"127.0357833","road_address_name":"4F 어학교실 앞 대기실 벽면"},
    {"category":"문화관광","gu_nm":"강남구","y":"37.527293","place_name":"서울특별시 강남구 언주로172길 26","instl_div":"미래부(KT)","place_addr":"압구정평생학습관","objectid":"WF141183","x":"127.0357833","road_address_name":"3층 탁구장내 천정매립"},
    {"category":"문화관광","gu_nm":"강남구","y":"37.527293","place_name":"서울특별시 강남구 언주로172길 26","instl_div":"미래부(KT)","place_addr":"압구정평생학습관","objectid":"WF141184","x":"127.0357833","road_address_name":"2F 대기실 남자화장실 입구 상단"},
    {"category":"문화관광","gu_nm":"강남구","y":"37.4939379","place_name":"서울특별시 강남구 논현로64길 7","instl_div":"미래부(KT)","place_addr":"역삼청소년수련관","objectid":"WF141185","x":"127.0410313","road_address_name":"5F 남자화장실 앞 천장"},
    {"category":"문화관광","gu_nm":"강남구","y":"37.4939379","place_name":"서울특별시 강남구 논현로64길 7","instl_div":"미래부(KT)","place_addr":"역삼청소년수련관","objectid":"WF141186","x":"127.0410313","road_address_name":"4F 남자화장실 앞 천장"},
    {"category":"문화관광","gu_nm":"강남구","y":"37.4939379","place_name":"서울특별시 강남구 논현로64길 7","instl_div":"미래부(KT)","place_addr":"역삼청소년수련관","objectid":"WF141187","x":"127.0410313","road_address_name":"3F 사무실 입구 위 천장"},
    {"category":"문화관광","gu_nm":"강남구","y":"37.4939379","place_name":"서울특별시 강남구 논현로64길 7","instl_div":"미래부(KT)","place_addr":"역삼청소년수련관","objectid":"WF141188","x":"127.0410313","road_address_name":"2F 어린이집 앞 천장"},
    {"category":"문화관광","gu_nm":"강남구","y":"37.4939379","place_name":"서울특별시 강남구 논현로64길 7","instl_div":"미래부(KT)","place_addr":"역삼청소년수련관","objectid":"WF141189","x":"127.0410313","road_address_name":"1F 엘리베이터 앞 천장"},
    {"category":"문화관광","gu_nm":"강남구","y":"37.519128","place_name":"서울특별시 강남구 학동로67길 11","instl_div":"미래부(KT)","place_addr":"청담평생학습관","objectid":"WF141192","x":"127.0464205","road_address_name":"4F 대기실 점검구 안"},
    {"category":"문화관광","gu_nm":"강남구","y":"37.519128","place_name":"서울특별시 강남구 학동로67길 11","instl_div":"미래부(KT)","place_addr":"청담평생학습관","objectid":"WF141193","x":"127.0464205","road_address_name":"3F 도서관 앞 대기실 점검구 안"},
    {"category":"문화관광","gu_nm":"강남구","y":"37.519128","place_name":"서울특별시 강남구 학동로67길 11","instl_div":"미래부(KT)","place_addr":"청담평생학습관","objectid":"WF141194","x":"127.0464205","road_address_name":"2F 생활체육교실 앞 대기실 점검구 안"},
    {"category":"문화관광","gu_nm":"강남구","y":"37.519128","place_name":"서울특별시 강남구 학동로67길 11","instl_div":"미래부(KT)","place_addr":"청담평생학습관","objectid":"WF141195","x":"127.0464205","road_address_name":"1F 안내데스크 앞 점검구 안"},
    {"category":"문화관광","gu_nm":"강남구","y":"37.519128","place_name":"서울특별시 강남구 학동로67길 11","instl_div":"미래부(KT)","place_addr":"청담평생학습관","objectid":"WF141196","x":"127.0464205","road_address_name":"B1 식당 앞 점검구 안"},
    {"category":"복지센터등","gu_nm":"강남구","y":"37.4847268","place_name":"서울특별시 강남구 광평로 185","instl_div":"미래부(SKT)","place_addr":"태화기독사회복지관","objectid":"WF141197","x":"127.0934479","road_address_name":"5층 휴게실 복도"},
    {"category":"복지센터등","gu_nm":"강남구","y":"37.4847268","place_name":"서울특별시 강남구 광평로 185","instl_div":"미래부(SKT)","place_addr":"태화기독사회복지관","objectid":"WF141198","x":"127.0934479","road_address_name":"5층 직원식당 앞 복도"},
    {"category":"복지센터등","gu_nm":"강남구","y":"37.4847268","place_name":"서울특별시 강남구 광평로 185","instl_div":"미래부(SKT)","place_addr":"태화기독사회복지관","objectid":"WF141199","x":"127.0934479","road_address_name":"4층 미술실복도"},
    {"category":"복지센터등","gu_nm":"강남구","y":"37.4847268","place_name":"서울특별시 강남구 광평로 185","instl_div":"미래부(SKT)","place_addr":"태화기독사회복지관","objectid":"WF141200","x":"127.0934479","road_address_name":"4층 휴게실 복도"},
    {"category":"복지센터등","gu_nm":"강남구","y":"37.4847268","place_name":"서울특별시 강남구 광평로 185","instl_div":"미래부(SKT)","place_addr":"태화기독사회복지관","objectid":"WF141201","x":"127.0934479","road_address_name":"3층 초목교실복도"},
    {"category":"복지센터등","gu_nm":"강남구","y":"37.4847268","place_name":"서울특별시 강남구 광평로 185","instl_div":"미래부(SKT)","place_addr":"태화기독사회복지관","objectid":"WF141202","x":"127.0934479","road_address_name":"3층 휴게실앞 복도"},
    {"category":"복지센터등","gu_nm":"강남구","y":"37.4847268","place_name":"서울특별시 강남구 광평로 185","instl_div":"미래부(SKT)","place_addr":"태화기독사회복지관","objectid":"WF141203","x":"127.0934479","road_address_name":"2층 헬스장"},
    {"category":"복지센터등","gu_nm":"강남구","y":"37.4847268","place_name":"서울특별시 강남구 광평로 185","instl_div":"미래부(SKT)","place_addr":"태화기독사회복지관","objectid":"WF141204","x":"127.0934479","road_address_name":"2층 어린이체육관 복도"},
    {"category":"복지센터등","gu_nm":"강남구","y":"37.4847268","place_name":"서울특별시 강남구 광평로 185","instl_div":"미래부(SKT)","place_addr":"태화기독사회복지관","objectid":"WF141205","x":"127.0934479","road_address_name":"1층 어린이집 복도"},
    {"category":"복지센터등","gu_nm":"강남구","y":"37.4847268","place_name":"서울특별시 강남구 광평로 185","instl_div":"미래부(SKT)","place_addr":"태화기독사회복지관","objectid":"WF141206","x":"127.0934479","road_address_name":"1층 로비"},
    {"category":"복지센터등","gu_nm":"강남구","y":"37.4847268","place_name":"서울특별시 강남구 광평로 185","instl_div":"미래부(SKT)","place_addr":"태화기독사회복지관","objectid":"WF141207","x":"127.0934479","road_address_name":"지하1층 소체육실 앞"},
    {"category":"복지센터등","gu_nm":"강남구","y":"37.4847268","place_name":"서울특별시 강남구 광평로 185","instl_div":"미래부(SKT)","place_addr":"태화기독사회복지관","objectid":"WF141208","x":"127.0934479","road_address_name":"지하1층 에어로빅실 앞"},
    {"category":"복지센터등","gu_nm":"강남구","y":"37.4847268","place_name":"서울특별시 강남구 광평로 185","instl_div":"미래부(SKT)","place_addr":"태화기독사회복지관","objectid":"WF141209","x":"127.0934479","road_address_name":"지하1층 카페앞"},
    {"category":"복지센터등","gu_nm":"강남구","y":"37.4847268","place_name":"서울특별시 강남구 광평로 185","instl_div":"미래부(SKT)","place_addr":"태화기독사회복지관","objectid":"WF141210","x":"127.0934479","road_address_name":"지하1층 태화극장 천정"},
    {"category":"복지센터등","gu_nm":"강남구","y":"37.4925619","place_name":"서울특별시 강남구 개포로 613","instl_div":"미래부(LGU+)","place_addr":"하상장애인복지관","objectid":"WF141211","x":"127.07517","road_address_name":"1층 엘리베이터 옆 쉼터 천정"},
    {"category":"복지센터등","gu_nm":"강남구","y":"37.4925619","place_name":"서울특별시 강남구 개포로 613","instl_div":"미래부(LGU+)","place_addr":"하상장애인복지관","objectid":"WF141212","x":"127.07517","road_address_name":"1층 인포데스크 앞 천정"},
    {"category":"복지센터등","gu_nm":"강남구","y":"37.4925619","place_name":"서울특별시 강남구 개포로 613","instl_div":"미래부(LGU+)","place_addr":"하상장애인복지관","objectid":"WF141213","x":"127.07517","road_address_name":"2층 엘리베이터 옆 코너 천정"},
    {"category":"복지센터등","gu_nm":"강남구","y":"37.4925619","place_name":"서울특별시 강남구 개포로 613","instl_div":"미래부(LGU+)","place_addr":"하상장애인복지관","objectid":"WF141214","x":"127.07517","road_address_name":"B1층 구내식당 옆 천정"},
    {"category":"버스승차대","gu_nm":"강남구","y":"37.498251","place_name":"서울특별시 강남구 테헤란로 110","instl_div":"KT","place_addr":"강남역사거리","objectid":"WF141215","x":"127.029331","road_address_name":"강남역.역삼세무서 23-287정류장/AP망실"},
    {"category":"버스승차대","gu_nm":"강남구","y":"37.497742","place_name":"서울특별시 서초구 서초대로 411","instl_div":"KT","place_addr":"강남역사거리","objectid":"WF141216","x":"127.026214","road_address_name":"강남역.강남역사거리 22-167정류장"}
     ]
    }